     2.11           N: GPS NAV DATA                         RINEX VERSION / TYPE
teqc  2019Feb25                         20230504 17:04:32UTCPGM / RUN BY / DATE
Linux2.6.32-573.12.1.el6.x86_64|x86_64|gcc|Win64-MinGW64|=+ COMMENT
                                                            END OF HEADER
28 21 10  1 18  0  0.0 4.906510002911D-04-7.162270776462D-12 0.000000000000D+00
    9.400000000000D+01-3.187500000000D+00 4.199460638678D-09 1.994318299522D+00
   -2.533197402954D-07 1.745796808973D-02 7.424503564835D-06 5.153716451645D+03
    4.968000000000D+05 3.129243850708D-07-1.420853350371D+00-1.490116119385D-08
    9.708408980260D-01 2.364062500000D+02-1.331461796728D+00-7.646389931404D-09
   -4.860916762409D-10 1.000000000000D+00 2.177000000000D+03 0.000000000000D+00
    4.000000000000D+00 6.300000000000D+01-1.117587089539D-08 9.400000000000D+01
    4.896180000000D+05 4.000000000000D+00
 6 21 10  1 18  0  0.0 8.557131513953D-05 7.844391802792D-12 0.000000000000D+00
    2.400000000000D+01 3.206250000000D+01 4.056597544999D-09-3.906227328105D-01
    1.451000571251D-06 2.221770351753D-03 3.920868039131D-06 5.153588285446D+03
    4.968000000000D+05-9.313225746155D-09 5.822127808707D-01-1.490116119385D-08
    9.851493501219D-01 3.146250000000D+02-1.024095118655D+00-8.072121950566D-09
    2.746542975968D-10 1.000000000000D+00 2.177000000000D+03 0.000000000000D+00
    2.000000000000D+00 0.000000000000D+00 3.725290298462D-09 2.400000000000D+01
    4.896180000000D+05 4.000000000000D+00
 7 21 10  1 18  0  0.0 2.551670186222D-04 6.593836587854D-12 0.000000000000D+00
    6.900000000000D+01 3.475000000000D+01 4.931276836045D-09-1.368104389462D+00
    1.806765794754D-06 1.528121135198D-02 6.277114152908D-06 5.153729898453D+03
    4.968000000000D+05 3.539025783539D-07-2.555077885615D+00 3.166496753693D-08
    9.515259482008D-01 2.515625000000D+02-2.304236382797D+00-8.116409509606D-09
    1.385772008681D-10 1.000000000000D+00 2.177000000000D+03 0.000000000000D+00
    2.000000000000D+00 0.000000000000D+00-1.117587089539D-08 6.900000000000D+01
    4.896180000000D+05 4.000000000000D+00
24 21 10  1 18  0  0.0 2.459930256009D-04 7.162270776462D-12 0.000000000000D+00
    6.500000000000D+01 3.018750000000D+01 5.522015728406D-09-3.859574343906D-01
    1.596286892891D-06 1.165516627952D-02 6.252899765968D-06 5.153703451157D+03
    4.968000000000D+05-1.303851604462D-08-2.635490732733D+00 1.844018697739D-07
    9.350176213399D-01 2.430937500000D+02 7.611841262142D-01-8.643931483014D-09
    5.357366012941D-11 1.000000000000D+00 2.177000000000D+03 0.000000000000D+00
    2.800000000000D+00 0.000000000000D+00 2.793967723846D-09 6.500000000000D+01
    4.896180000000D+05 4.000000000000D+00
29 21 10  1 18  0  0.0-4.199794493616D-04-5.570655048359D-12 0.000000000000D+00
    6.600000000000D+01 7.384375000000D+01 3.691582340651D-09 1.498850233631D+00
    3.855675458908D-06 1.920121605508D-03 8.558854460716D-06 5.153577011108D+03
    4.968000000000D+05 8.940696716309D-08-3.935061736031D-01 7.078051567078D-08
    9.832709077172D-01 2.252500000000D+02 2.362362699946D+00-7.674248234671D-09
    6.214544575012D-11 1.000000000000D+00 2.177000000000D+03 0.000000000000D+00
    2.000000000000D+00 0.000000000000D+00-1.024454832077D-08 6.600000000000D+01
    4.896180000000D+05 4.000000000000D+00
18 21 10  1 18  0  0.0 3.157411701977D-04-4.774847184308D-12 0.000000000000D+00
    1.380000000000D+02 2.234375000000D+01 4.446970948475D-09-4.486975303732D-01
    1.156702637672D-06 1.984800561331D-03 3.021210432053D-06 5.153645809174D+03
    4.968000000000D+05 5.587935447693D-09 6.003042016053D-01-2.793967723846D-08
    9.694660359117D-01 3.236250000000D+02 2.974966282898D+00-8.294631218970D-09
    2.553677799502D-10 1.000000000000D+00 2.177000000000D+03 0.000000000000D+00
    2.000000000000D+00 0.000000000000D+00-8.381903171539D-09 6.500000000000D+02
    4.906980000000D+05 4.000000000000D+00
23 21 10  1 18  0  0.0 5.046185106039D-05-4.774847184308D-12 0.000000000000D+00
    1.520000000000D+02-1.000312500000D+02 4.504116185947D-09-1.182634348005D+00
   -5.209818482399D-06 1.731810625643D-03 6.107613444328D-06 5.153678712845D+03
    4.968000000000D+05 7.450580596924D-09 1.600034428428D+00-7.450580596924D-09
    9.653535625307D-01 2.640000000000D+02 2.700683469393D+00-8.160339910912D-09
   -7.893185925733D-11 1.000000000000D+00 2.177000000000D+03 0.000000000000D+00
    2.000000000000D+00 0.000000000000D+00-8.381903171539D-09 9.200000000000D+02
    4.948380000000D+05 4.000000000000D+00
12 21 10  1 18  0  0.0-1.053651794791D-04-5.456968210638D-12 0.000000000000D+00
    4.000000000000D+01 9.687500000000D+00 4.233033465692D-09-2.086587990879D+00
    5.289912223816D-07 8.259813766927D-03 7.672235369682D-06 5.153670600891D+03
    4.968000000000D+05 1.695007085800D-07-1.443062396884D+00-3.911554813385D-08
    9.717052090451D-01 2.384375000000D+02 1.231488116903D+00-7.710321165825D-09
   -4.403754862638D-10 1.000000000000D+00 2.177000000000D+03 0.000000000000D+00
    2.000000000000D+00 0.000000000000D+00-1.257285475731D-08 4.000000000000D+01
    4.954380000000D+05 4.000000000000D+00
 5 21 10  1 20  0  0.0-5.625328049064D-05-1.250555214938D-12 0.000000000000D+00
    2.400000000000D+01-8.600000000000D+01 4.679480633437D-09 2.918363728055D+00
   -4.557892680168D-06 6.089761969633D-03 5.157664418221D-06 5.153598360062D+03
    5.040000000000D+05-1.676380634308D-08 1.588399709281D+00-1.005828380585D-07
    9.574562011625D-01 2.805000000000D+02 1.000559489250D+00-8.139624762329D-09
   -6.393123442110D-11 1.000000000000D+00 2.177000000000D+03 0.000000000000D+00
    2.000000000000D+00 0.000000000000D+00-1.117587089539D-08 2.400000000000D+01
    4.968180000000D+05 4.000000000000D+00
15 21 10  1 20  0  0.0-1.170639880002D-04 2.728484105319D-12 0.000000000000D+00
    4.000000000000D+01-5.337500000000D+01 5.198787978958D-09 1.636683703771D+00
   -2.792105078697D-06 1.374433957972D-02 1.072697341442D-05 5.153689674377D+03
    5.040000000000D+05-3.427267074585D-07 2.553889248584D+00-1.862645149231D-07
    9.296280497340D-01 1.607500000000D+02 1.033987370707D+00-8.299274269514D-09
    1.764359206929D-10 1.000000000000D+00 2.177000000000D+03 0.000000000000D+00
    2.000000000000D+00 0.000000000000D+00-1.071020960808D-08 4.000000000000D+01
    4.968180000000D+05 4.000000000000D+00
13 21 10  1 20  0  0.0 1.934473402798D-04 5.456968210638D-12 0.000000000000D+00
    9.500000000000D+01-2.037500000000D+01 4.281606917543D-09 1.989809735220D+00
   -1.037493348122D-06 5.517554585822D-03 1.060776412487D-05 5.153687711716D+03
    5.040000000000D+05-1.210719347000D-07 2.806896878110D+00-1.434236764908D-07
    9.686749556458D-01 1.792812500000D+02 9.680887965556D-01-7.733893576282D-09
    3.071556514086D-10 1.000000000000D+00 2.177000000000D+03 0.000000000000D+00
    2.000000000000D+00 0.000000000000D+00-1.117587089539D-08 9.500000000000D+01
    4.968180000000D+05 4.000000000000D+00
24 21 10  1 20  0  0.0 2.460442483425D-04 7.162270776462D-12 0.000000000000D+00
    6.600000000000D+01 4.043750000000D+01 5.535230564571D-09 6.641791709170D-01
    2.302229404449D-06 1.165671716444D-02 6.536021828651D-06 5.153706510544D+03
    5.040000000000D+05-2.793967723846D-08-2.635553222742D+00 1.210719347000D-07
    9.350179812177D-01 2.382187500000D+02 7.612168765612D-01-8.671432628547D-09
    5.785955293977D-11 1.000000000000D+00 2.177000000000D+03 0.000000000000D+00
    2.800000000000D+00 0.000000000000D+00 2.793967723846D-09 6.600000000000D+01
    4.968180000000D+05 4.000000000000D+00
28 21 10  1 20  0  0.0 4.905993118882D-04-7.162270776462D-12 0.000000000000D+00
    9.900000000000D+01-2.906250000000D+00 4.202675058285D-09 3.044464040753D+00
   -4.656612873077D-08 1.745749823749D-02 7.791444659233D-06 5.153717283249D+03
    5.040000000000D+05 1.545995473862D-07-1.420907545634D+00 7.450580596924D-08
    9.708371690478D-01 2.321875000000D+02-1.331455386221D+00-7.570315334020D-09
   -5.521658570671D-10 1.000000000000D+00 2.177000000000D+03 0.000000000000D+00
    4.000000000000D+00 6.300000000000D+01-1.117587089539D-08 9.900000000000D+01
    4.968180000000D+05 4.000000000000D+00
20 21 10  1 20  0  0.0 5.188537761569D-04-2.273736754432D-13 0.000000000000D+00
    1.200000000000D+01-7.662500000000D+01 5.144857161095D-09 1.483366062071D+00
   -4.168599843979D-06 5.519168102182D-03 4.088506102562D-06 5.153663703918D+03
    5.040000000000D+05 1.862645149231D-09 1.476859074137D+00 5.960464477539D-08
    9.395365899159D-01 2.906562500000D+02 2.991578431592D+00-8.482853344891D-09
   -9.393248409357D-11 1.000000000000D+00 2.177000000000D+03 0.000000000000D+00
    2.000000000000D+00 0.000000000000D+00-8.381903171539D-09 1.200000000000D+01
    4.968180000000D+05 4.000000000000D+00
14 21 10  1 20  0  0.0-1.029483973980D-05-7.844391802792D-12 0.000000000000D+00
    4.500000000000D+01-5.812500000000D+00 4.672694636487D-09-1.087216231651D+00
   -2.756714820862D-07 1.125400769524D-03 7.605180144310D-06 5.153641386032D+03
    5.040000000000D+05-4.470348358154D-08-1.472281120704D+00-1.210719347000D-07
    9.551488487320D-01 2.333437500000D+02 3.119868533699D+00-8.058907114400D-09
   -5.432369137122D-10 1.000000000000D+00 2.177000000000D+03 0.000000000000D+00
    2.800000000000D+00 0.000000000000D+00-7.916241884232D-09 3.010000000000D+02
    4.968180000000D+05 4.000000000000D+00
18 21 10  1 20  0  0.0 3.157071769238D-04-4.774847184308D-12 0.000000000000D+00
    1.390000000000D+02 2.406250000000D+01 4.413040963727D-09 6.014891359911D-01
    1.283362507820D-06 1.984225003980D-03 3.283843398094D-06 5.153644733429D+03
    5.040000000000D+05 7.264316082001D-08 6.002446579136D-01-7.450580596924D-09
    9.694681308104D-01 3.196875000000D+02 2.974977342559D+00-8.235343035093D-09
    2.510818871398D-10 1.000000000000D+00 2.177000000000D+03 0.000000000000D+00
    2.000000000000D+00 0.000000000000D+00-8.381903171539D-09 6.510000000000D+02
    4.968180000000D+05 4.000000000000D+00
